CSS (TIANHE)            
1 48274U 21035A   24267.11149353  .00050804  00000+0  55766-3 0  9992
2 48274  41.4671 206.0290 0005487   3.0355 357.0517 15.62350174194410
